OBJECT_NAME,OBJECT_ID,EPOCH,MEAN_MOTION,ECCENTRICITY,INCLINATION,RA_OF_ASC_NODE,ARG_OF_PERICENTER,MEAN_ANOMALY,EPHEMERIS_TYPE,CLASSIFICATION_TYPE,NORAD_CAT_ID,ELEMENT_SET_NO,REV_AT_EPOCH,BSTAR,MEAN_MOTION_DOT,MEAN_MOTION_DDOT
BEIDOU-3 M14 (C33),2018-072B,2026-05-09T04:53:01.332096,1.86231536,.0006695,56.5941,63.9398,345.6638,14.3071,0,U,43623,999,5192,0,-.2E-6,0
BEIDOU-3 M16 (C35),2018-078A,2026-05-08T19:44:21.967872,1.86232403,.0007972,54.1272,301.3654,39.2456,320.8026,0,U,43647,999,5142,0,-.37E-6,0
BEIDOU-3 G1 (C59),2018-085A,2026-05-09T13:10:03.753984,1.00273314,.0007647,2.9762,98.3941,337.6882,148.7732,0,U,43683,999,2767,0,-.98E-6,0
BEIDOU-3 M17 (C36),2018-093A,2026-05-09T05:58:49.985760,1.86228609,.0009134,54.1671,183.6178,291.2507,160.2904,0,U,43706,999,5081,0,.44E-6,0
BEIDOU-3 M18 (C37),2018-093B,2026-05-07T08:45:16.145280,1.86226701,.00072481,54.1680,183.6737,323.3441,36.6857,0,U,43707,999,5078,0,.32E-6,0
BEIDOU-3 IGSO-1 (C38),2019-023A,2026-05-08T18:15:07.189632,1.00252154,.00240555,58.6418,38.0582,234.4286,343.5157,0,U,44204,999,681,0,-.215E-5,0
BEIDOU-2 G8 (C01),2019-027A,2026-05-09T11:37:13.296288,1.00274910,.0011092,1.5598,74.4083,281.9668,189.7345,0,U,44231,999,2569,0,-.237E-5,0
BEIDOU-3 IGSO-2 (C39),2019-035A,2026-05-09T12:23:58.164288,1.00279427,.0039521,55.2384,159.2020,215.2739,158.7000,0,U,44337,999,2528,0,-.73E-6,0
BEIDOU-3 M24 (C46),2019-061A,2026-05-09T01:04:30.547200,1.86229217,.0008103,54.3946,184.0482,3.6991,356.3835,0,U,44542,999,4506,0,.42E-6,0
BEIDOU-3 M23 (C45),2019-061B,2026-05-09T06:02:16.738368,1.86227742,.0005129,54.3931,184.0098,344.8604,65.7036,0,U,44543,999,4507,0,.44E-6,0
BEIDOU-3 IGSO-3 (C40),2019-073A,2026-04-30T20:24:33.185376,1.00251230,.00424046,54.8842,281.4069,188.8195,170.9972,0,U,44709,999,2398,0,-.212E-5,0
BEIDOU-3 M22 (C44),2019-078A,2026-05-09T10:06:16.219584,1.86227546,.0007198,53.9723,301.1911,47.1122,312.9393,0,U,44793,999,4392,0,-.37E-6,0
BEIDOU-3 M21 (C43),2019-078B,2026-05-09T13:27:54.069408,1.86228037,.0004996,53.9454,301.1483,44.9088,315.1228,0,U,44794,999,4393,0,-.37E-6,0
BEIDOU-3 M19 (C41),2019-090A,2026-05-08T10:55:03.355680,1.86231845,.00193419,56.5258,64.1039,296.1478,239.2902,0,U,44864,999,4349,0,-.21E-6,0
BEIDOU-3 M20 (C42),2019-090B,2026-05-09T09:12:30.606048,1.86231698,.0017025,56.5282,64.1078,308.8996,218.8417,0,U,44865,999,4349,0,-.2E-6,0
BEIDOU-3 G2 (C60),2020-017A,2026-05-09T11:40:37.126848,1.00271111,.0002951,2.7865,46.7268,6.3107,69.4551,0,U,45344,999,2287,0,-.131E-5,0
BEIDOU-3 G3 (C61),2020-040A,2026-05-09T13:39:40.561344,1.00277863,.0003547,2.3524,67.3307,332.3398,143.1014,0,U,45807,999,2168,0,-.344E-5,0
BEIDOU-3 G4 (C62),2023-066A,2026-05-09T13:20:54.451392,1.00267919,.0003533,0.5384,322.3803,159.1924,86.0513,0,U,56564,999,1100,0,-.274E-5,0
BEIDOU-3 M28 (C50),2023-207A,2026-05-09T02:25:50.674080,1.86229784,.000432,55.7199,63.6215,328.5843,31.3799,0,U,58654,999,1611,0,-.22E-6,0
BEIDOU-3 M26 (C48),2023-207B,2026-05-08T21:34:14.231712,1.86229772,.0004584,55.7218,63.6147,308.3454,51.6033,0,U,58655,999,1609,0,-.23E-6,0
BEIDOU-3 M25 (C47),2024-168B,2026-05-08T17:19:56.032320,1.86230280,.00032196,54.5099,303.6138,315.5987,43.1750,0,U,61186,999,1104,0,-.38E-6,0
BEIDOU-3 M27 (C49),2024-168C,2026-05-09T01:18:48.153600,1.86230358,.0002348,54.5049,303.5853,41.6147,315.1318,0,U,61187,999,852,0,-.38E-6,0
